{
  "type": "FeatureCollection",
  "features": [
    {
      "type": "Feature",
      "properties": {
        "norad_id": 41866,
        "name": "GOES 16",
        "group": "weather",
        "lat": -0.05902028687828506,
        "lon": -22.858904314778393,
        "alt_km": 35782.015042939216,
        "timestamp": "2025-12-18T23:35:48.688878+00:00",
        "meta_object_name": "GOES 16",
        "meta_object_id": "2016-071A",
        "meta_epoch": "2025-12-18T14:30:34.696800",
        "meta_mean_motion": 1.00272245,
        "meta_eccentricity": 0.00030277,
        "meta_inclination": 0.0709,
        "meta_ra_of_asc_node": 104.3164,
        "meta_arg_of_pericenter": 160.7339,
        "meta_mean_anomaly": 295.3866,
        "meta_ephemeris_type": 0,
        "meta_classification_type": "U",
        "meta_norad_cat_id": 41866,
        "meta_element_set_no": 999,
        "meta_rev_at_epoch": 3329,
        "meta_bstar": 0,
        "meta_mean_motion_dot": -6.6e-07,
        "meta_mean_motion_ddot": 0,
        "tle_line1": "1 41866U 16071A   25352.60456825 -.00000066  00000+0  00000+0 0  9994",
        "tle_line2": "2 41866   0.0709 104.3164 0003027 160.7339 295.3866  1.00272245 33292"
      },
      "geometry": {
        "type": "Point",
        "coordinates": [
          -22.858904314778393,
          -0.05902028687828506
        ]
      }
    },
    {
      "type": "Feature",
      "properties": {
        "norad_id": 41882,
        "name": "FENGYUN 4A",
        "group": "weather",
        "lat": 1.545225205648316,
        "lon": -154.4628954747861,
        "alt_km": 35769.372568133804,
        "timestamp": "2025-12-18T23:35:48.688891+00:00",
        "meta_object_name": "FENGYUN 4A",
        "meta_object_id": "2016-077A",
        "meta_epoch": "2025-12-18T15:35:43.456992",
        "meta_mean_motion": 1.00267081,
        "meta_eccentricity": 0.00045125,
        "meta_inclination": 1.8638,
        "meta_ra_of_asc_node": 82.3341,
        "meta_arg_of_pericenter": 143.047,
        "meta_mean_anomaly": 219.8229,
        "meta_ephemeris_type": 0,
        "meta_classification_type": "U",
        "meta_norad_cat_id": 41882,
        "meta_element_set_no": 999,
        "meta_rev_at_epoch": 3312,
        "meta_bstar": 0,
        "meta_mean_motion_dot": -3.33e-06,
        "meta_mean_motion_ddot": 0,
        "tle_line1": "1 41882U 16077A   25352.64980853 -.00000333  00000+0  00000+0 0  9992",
        "tle_line2": "2 41882   1.8638  82.3341 0004512 143.0470 219.8229  1.00267081 33120"
      },
      "geometry": {
        "type": "Point",
        "coordinates": [
          -154.4628954747861,
          1.545225205648316
        ]
      }
    },
    {
      "type": "Feature",
      "properties": {
        "norad_id": 41884,
        "name": "CYGFM05",
        "group": "weather",
        "lat": -32.7669093191863,
        "lon": -60.762792716842306,
        "alt_km": 420.3184696431899,
        "timestamp": "2025-12-18T23:35:48.688902+00:00",
        "meta_object_name": "CYGFM05",
        "meta_object_id": "2016-078A",
        "meta_epoch": "2025-12-18T09:58:14.123136",
        "meta_mean_motion": 15.47842846,
        "meta_eccentricity": 0.00106743,
        "meta_inclination": 34.9607,
        "meta_ra_of_asc_node": 10.0509,
        "meta_arg_of_pericenter": 233.6199,
        "meta_mean_anomaly": 126.3539,
        "meta_ephemeris_type": 0,
        "meta_classification_type": "U",
        "meta_norad_cat_id": 41884,
        "meta_element_set_no": 999,
        "meta_rev_at_epoch": 50064,
        "meta_bstar": 0.00032790971,
        "meta_mean_motion_dot": 0.000176,
        "meta_mean_motion_ddot": 0,
        "tle_line1": "1 41884U 16078A   25352.41544124  .00017600  00000+0  32791-3 0  9997",
        "tle_line2": "2 41884  34.9607  10.0509 0010674 233.6199 126.3539 15.47842846500645"
      },
      "geometry": {
        "type": "Point",
        "coordinates": [
          -60.762792716842306,
          -32.7669093191863
        ]
      }
    },
    {
      "type": "Feature",
      "properties": {
        "norad_id": 41885,
        "name": "CYGFM04",
        "group": "weather",
        "lat": -26.0832211567654,
        "lon": -154.53280970200203,
        "alt_km": 410.96470832763316,
        "timestamp": "2025-12-18T23:35:48.688913+00:00",
        "meta_object_name": "CYGFM04",
        "meta_object_id": "2016-078B",
        "meta_epoch": "2025-12-18T08:42:07.613568",
        "meta_mean_motion": 15.50592103,
        "meta_eccentricity": 0.00097951,
        "meta_inclination": 34.9357,
        "meta_ra_of_asc_node": 345.0092,
        "meta_arg_of_pericenter": 258.3905,
        "meta_mean_anomaly": 101.5718,
        "meta_ephemeris_type": 0,
        "meta_classification_type": "U",
        "meta_norad_cat_id": 41885,
        "meta_element_set_no": 999,
        "meta_rev_at_epoch": 50081,
        "meta_bstar": 0.00035246337,
        "meta_mean_motion_dot": 0.00020857,
        "meta_mean_motion_ddot": 0,
        "tle_line1": "1 41885U 16078B   25352.36258812  .00020857  00000+0  35246-3 0  9994",
        "tle_line2": "2 41885  34.9357 345.0092 0009795 258.3905 101.5718 15.50592103500812"
      },
      "geometry": {
        "type": "Point",
        "coordinates": [
          -154.53280970200203,
          -26.0832211567654
        ]
      }
    },
    {
      "type": "Feature",
      "properties": {
        "norad_id": 41886,
        "name": "CYGFM02",
        "group": "weather",
        "lat": -34.79781748858564,
        "lon": -105.24181672586253,
        "alt_km": 405.28724184013845,
        "timestamp": "2025-12-18T23:35:48.688924+00:00",
        "meta_object_name": "CYGFM02",
        "meta_object_id": "2016-078C",
        "meta_epoch": "2025-12-18T10:04:08.517792",
        "meta_mean_motion": 15.51990964,
        "meta_eccentricity": 0.00114697,
        "meta_inclination": 34.9446,
        "meta_ra_of_asc_node": 342.8876,
        "meta_arg_of_pericenter": 258.9648,
        "meta_mean_anomaly": 100.9785,
        "meta_ephemeris_type": 0,
        "meta_classification_type": "U",
        "meta_norad_cat_id": 41886,
        "meta_element_set_no": 999,
        "meta_rev_at_epoch": 50095,
        "meta_bstar": 0.00035378493,
        "meta_mean_motion_dot": 0.00022034,
        "meta_mean_motion_ddot": 0,
        "tle_line1": "1 41886U 16078C   25352.41954303  .00022034  00000+0  35378-3 0  9994",
        "tle_line2": "2 41886  34.9446 342.8876 0011469 258.9648 100.9785 15.51990964500958"
      },
      "geometry": {
        "type": "Point",
        "coordinates": [
          -105.24181672586253,
          -34.79781748858564
        ]
      }
    },
    {
      "type": "Feature",
      "properties": {
        "norad_id": 41887,
        "name": "CYGFM01",
        "group": "weather",
        "lat": -7.70218183153869,
        "lon": -2.52181293161639,
        "alt_km": 424.0717455714657,
        "timestamp": "2025-12-18T23:35:48.688935+00:00",
        "meta_object_name": "CYGFM01",
        "meta_object_id": "2016-078D",
        "meta_epoch": "2025-12-18T11:16:35.201568",
        "meta_mean_motion": 15.48428665,
        "meta_eccentricity": 0.00103113,
        "meta_inclination": 34.9437,
        "meta_ra_of_asc_node": 12.0044,
        "meta_arg_of_pericenter": 226.5679,
        "meta_mean_anomaly": 133.4185,
        "meta_ephemeris_type": 0,
        "meta_classification_type": "U",
        "meta_norad_cat_id": 41887,
        "meta_element_set_no": 999,
        "meta_rev_at_epoch": 50059,
        "meta_bstar": 0.00031117974,
        "meta_mean_motion_dot": 0.00017044,
        "meta_mean_motion_ddot": 0,
        "tle_line1": "1 41887U 16078D   25352.46985187  .00017044  00000+0  31118-3 0  9997",
        "tle_line2": "2 41887  34.9437  12.0044 0010311 226.5679 133.4185 15.48428665500597"
      },
      "geometry": {
        "type": "Point",
        "coordinates": [
          -2.52181293161639,
          -7.70218183153869
        ]
      }
    },
    {
      "type": "Feature",
      "properties": {
        "norad_id": 41888,
        "name": "CYGFM08",
        "group": "weather",
        "lat": 30.424774197678953,
        "lon": 48.80858865853474,
        "alt_km": 419.9296348014259,
        "timestamp": "2025-12-18T23:35:48.688946+00:00",
        "meta_object_name": "CYGFM08",
        "meta_object_id": "2016-078E",
        "meta_epoch": "2025-12-18T09:24:52.116768",
        "meta_mean_motion": 15.49646932,
        "meta_eccentricity": 0.00120006,
        "meta_inclination": 34.9468,
        "meta_ra_of_asc_node": 355.4372,
        "meta_arg_of_pericenter": 248.6935,
        "meta_mean_anomaly": 111.2506,
        "meta_ephemeris_type": 0,
        "meta_classification_type": "U",
        "meta_norad_cat_id": 41888,
        "meta_element_set_no": 999,
        "meta_rev_at_epoch": 50081,
        "meta_bstar": 0.00034719619,
        "meta_mean_motion_dot": 0.00019881,
        "meta_mean_motion_ddot": 0,
        "tle_line1": "1 41888U 16078E   25352.39226987  .00019881  00000+0  34720-3 0  9999",
        "tle_line2": "2 41888  34.9468 355.4372 0012000 248.6935 111.2506 15.49646932500813"
      },
      "geometry": {
        "type": "Point",
        "coordinates": [
          48.80858865853474,
          30.424774197678953
        ]
      }
    }
  ]
}